[
  {
    "COMMENT": "GENERATED VIA SPACETRACK.ORG API",
    "ORIGINATOR": "18 SPCS",
    "NORAD_CAT_ID": "43437",
    "OBJECT_NAME": "SENTINEL 3B",
    "OBJECT_TYPE": "PAYLOAD",
    "CLASSIFICATION_TYPE": "U",
    "INTLDES": "18039A",
    "EPOCH": "2023-06-05 03:17:44",
    "EPOCH_MICROSECONDS": "355552",
    "MEAN_MOTION": "14.26739704",
    "ECCENTRICITY": "0.0000902",
    "INCLINATION": "98.628",
    "RA_OF_ASC_NODE": "223.4161",
    "ARG_OF_PERICENTER": "101.5827",
    "MEAN_ANOMALY": "258.5455",
    "EPHEMERIS_TYPE": "0",
    "ELEMENT_SET_NO": "999",
    "REV_AT_EPOCH": "26612",
    "BSTAR": "0.000079468",
    "MEAN_MOTION_DOT": "0.00000149",
    "MEAN_MOTION_DDOT": "0",
    "FILE": "3925691",
    "TLE_LINE0": "0 SENTINEL 3B",
    "TLE_LINE1": "1 43437U 18039A   23156.13731893  .00000149  00000-0  79468-4 0  9996",
    "TLE_LINE2": "2 43437  98.6280 223.4161 0000902 101.5827 258.5455 14.26739704266124",
    "OBJECT_ID": "2018-039A",
    "OBJECT_NUMBER": "43437",
    "SEMIMAJOR_AXIS": "7180.786",
    "PERIOD": "100.929",
    "APOGEE": "803.299",
    "PERIGEE": "802.004",
    "DECAYED": "0"
  },
  {
    "COMMENT": "GENERATED VIA SPACETRACK.ORG API",
    "ORIGINATOR": "18 SPCS",
    "NORAD_CAT_ID": "43437",
    "OBJECT_NAME": "SENTINEL 3B",
    "OBJECT_TYPE": "PAYLOAD",
    "CLASSIFICATION_TYPE": "U",
    "INTLDES": "18039A",
    "EPOCH": "2023-06-05 18:26:37",
    "EPOCH_MICROSECONDS": "224096",
    "MEAN_MOTION": "14.26740035",
    "ECCENTRICITY": "0.0000907",
    "INCLINATION": "98.628",
    "RA_OF_ASC_NODE": "224.0384",
    "ARG_OF_PERICENTER": "102.1601",
    "MEAN_ANOMALY": "257.9681",
    "EPHEMERIS_TYPE": "0",
    "ELEMENT_SET_NO": "999",
    "REV_AT_EPOCH": "26621",
    "BSTAR": "0.000084644",
    "MEAN_MOTION_DOT": "0.00000161",
    "MEAN_MOTION_DDOT": "0",
    "FILE": "3925751",
    "TLE_LINE0": "0 SENTINEL 3B",
    "TLE_LINE1": "1 43437U 18039A   23156.76848639  .00000161  00000-0  84644-4 0  9998",
    "TLE_LINE2": "2 43437  98.6280 224.0384 0000907 102.1601 257.9681 14.26740035266213",
    "OBJECT_ID": "2018-039A",
    "OBJECT_NUMBER": "43437",
    "SEMIMAJOR_AXIS": "7180.785",
    "PERIOD": "100.929",
    "APOGEE": "803.302",
    "PERIGEE": "801.999",
    "DECAYED": "0"
  },
  {
    "COMMENT": "GENERATED VIA SPACETRACK.ORG API",
    "ORIGINATOR": "18 SPCS",
    "NORAD_CAT_ID": "43437",
    "OBJECT_NAME": "SENTINEL 3B",
    "OBJECT_TYPE": "PAYLOAD",
    "CLASSIFICATION_TYPE": "U",
    "INTLDES": "18039A",
    "EPOCH": "2023-06-06 02:51:33",
    "EPOCH_MICROSECONDS": "256224",
    "MEAN_MOTION": "14.26740168",
    "ECCENTRICITY": "0.0000904",
    "INCLINATION": "98.6279",
    "RA_OF_ASC_NODE": "224.3842",
    "ARG_OF_PERICENTER": "102.8186",
    "MEAN_ANOMALY": "257.3096",
    "EPHEMERIS_TYPE": "0",
    "ELEMENT_SET_NO": "999",
    "REV_AT_EPOCH": "26626",
    "BSTAR": "0.000083726",
    "MEAN_MOTION_DOT": "0.00000159",
    "MEAN_MOTION_DDOT": "0",
    "FILE": "3925788",
    "TLE_LINE0": "0 SENTINEL 3B",
    "TLE_LINE1": "1 43437U 18039A   23157.11913491  .00000159  00000-0  83726-4 0  9994",
    "TLE_LINE2": "2 43437  98.6279 224.3842 0000904 102.8186 257.3096 14.26740168266261",
    "OBJECT_ID": "2018-039A",
    "OBJECT_NUMBER": "43437",
    "SEMIMAJOR_AXIS": "7180.785",
    "PERIOD": "100.929",
    "APOGEE": "803.299",
    "PERIGEE": "802.001",
    "DECAYED": "0"
  },
  {
    "COMMENT": "GENERATED VIA SPACETRACK.ORG API",
    "ORIGINATOR": "18 SPCS",
    "NORAD_CAT_ID": "43437",
    "OBJECT_NAME": "SENTINEL 3B",
    "OBJECT_TYPE": "PAYLOAD",
    "CLASSIFICATION_TYPE": "U",
    "INTLDES": "18039A",
    "EPOCH": "2023-06-06 04:32:32",
    "EPOCH_MICROSECONDS": "462304",
    "MEAN_MOTION": "14.26740239",
    "ECCENTRICITY": "0.0000903",
    "INCLINATION": "98.6279",
    "RA_OF_ASC_NODE": "224.4533",
    "ARG_OF_PERICENTER": "103.0064",
    "MEAN_ANOMALY": "257.1217",
    "EPHEMERIS_TYPE": "0",
    "ELEMENT_SET_NO": "999",
    "REV_AT_EPOCH": "26627",
    "BSTAR": "0.000086653",
    "MEAN_MOTION_DOT": "0.00000166",
    "MEAN_MOTION_DDOT": "0",
    "FILE": "3926325",
    "TLE_LINE0": "0 SENTINEL 3B",
    "TLE_LINE1": "1 43437U 18039A   23157.18926461  .00000166  00000-0  86653-4 0  9992",
    "TLE_LINE2": "2 43437  98.6279 224.4533 0000903 103.0064 257.1217 14.26740239266279",
    "OBJECT_ID": "2018-039A",
    "OBJECT_NUMBER": "43437",
    "SEMIMAJOR_AXIS": "7180.785",
    "PERIOD": "100.929",
    "APOGEE": "803.298",
    "PERIGEE": "802.001",
    "DECAYED": "0"
  },
  {
    "COMMENT": "GENERATED VIA SPACETRACK.ORG API",
    "ORIGINATOR": "18 SPCS",
    "NORAD_CAT_ID": "43437",
    "OBJECT_NAME": "SENTINEL 3B",
    "OBJECT_TYPE": "PAYLOAD",
    "CLASSIFICATION_TYPE": "U",
    "INTLDES": "18039A",
    "EPOCH": "2023-06-06 14:38:27",
    "EPOCH_MICROSECONDS": "697056",
    "MEAN_MOTION": "14.26740401",
    "ECCENTRICITY": "0.0000891",
    "INCLINATION": "98.6279",
    "RA_OF_ASC_NODE": "224.8682",
    "ARG_OF_PERICENTER": "103.9719",
    "MEAN_ANOMALY": "256.156",
    "EPHEMERIS_TYPE": "0",
    "ELEMENT_SET_NO": "999",
    "REV_AT_EPOCH": "26633",
    "BSTAR": "0.000085129",
    "MEAN_MOTION_DOT": "0.00000162",
    "MEAN_MOTION_DDOT": "0",
    "FILE": "3926571",
    "TLE_LINE0": "0 SENTINEL 3B",
    "TLE_LINE1": "1 43437U 18039A   23157.61004279  .00000162  00000-0  85129-4 0  9997",
    "TLE_LINE2": "2 43437  98.6279 224.8682 0000891 103.9719 256.1560 14.26740401266338",
    "OBJECT_ID": "2018-039A",
    "OBJECT_NUMBER": "43437",
    "SEMIMAJOR_AXIS": "7180.784",
    "PERIOD": "100.929",
    "APOGEE": "803.289",
    "PERIGEE": "802.009",
    "DECAYED": "0"
  },
  {
    "COMMENT": "GENERATED VIA SPACETRACK.ORG API",
    "ORIGINATOR": "18 SPCS",
    "NORAD_CAT_ID": "43437",
    "OBJECT_NAME": "SENTINEL 3B",
    "OBJECT_TYPE": "PAYLOAD",
    "CLASSIFICATION_TYPE": "U",
    "INTLDES": "18039A",
    "EPOCH": "2023-06-07 04:06:21",
    "EPOCH_MICROSECONDS": "801888",
    "MEAN_MOTION": "14.26732301",
    "ECCENTRICITY": "0.0001044",
    "INCLINATION": "98.6278",
    "RA_OF_ASC_NODE": "225.4222",
    "ARG_OF_PERICENTER": "110.7104",
    "MEAN_ANOMALY": "249.4189",
    "EPHEMERIS_TYPE": "0",
    "ELEMENT_SET_NO": "999",
    "REV_AT_EPOCH": "26641",
    "BSTAR": "0.000087345",
    "MEAN_MOTION_DOT": "0.00000168",
    "MEAN_MOTION_DDOT": "0",
    "FILE": "3926946",
    "TLE_LINE0": "0 SENTINEL 3B",
    "TLE_LINE1": "1 43437U 18039A   23158.17108567  .00000168  00000-0  87345-4 0  9992",
    "TLE_LINE2": "2 43437  98.6278 225.4222 0001044 110.7104 249.4189 14.26732301266410",
    "OBJECT_ID": "2018-039A",
    "OBJECT_NUMBER": "43437",
    "SEMIMAJOR_AXIS": "7180.811",
    "PERIOD": "100.930",
    "APOGEE": "803.426",
    "PERIGEE": "801.927",
    "DECAYED": "0"
  },
  {
    "COMMENT": "GENERATED VIA SPACETRACK.ORG API",
    "ORIGINATOR": "18 SPCS",
    "NORAD_CAT_ID": "43437",
    "OBJECT_NAME": "SENTINEL 3B",
    "OBJECT_TYPE": "PAYLOAD",
    "CLASSIFICATION_TYPE": "U",
    "INTLDES": "18039A",
    "EPOCH": "2023-06-07 04:06:21",
    "EPOCH_MICROSECONDS": "801888",
    "MEAN_MOTION": "14.26732301",
    "ECCENTRICITY": "0.0001044",
    "INCLINATION": "98.6278",
    "RA_OF_ASC_NODE": "225.4222",
    "ARG_OF_PERICENTER": "110.7104",
    "MEAN_ANOMALY": "249.4189",
    "EPHEMERIS_TYPE": "0",
    "ELEMENT_SET_NO": "999",
    "REV_AT_EPOCH": "26641",
    "BSTAR": "0.000087345",
    "MEAN_MOTION_DOT": "0.00000168",
    "MEAN_MOTION_DDOT": "0",
    "FILE": "3927174",
    "TLE_LINE0": "0 SENTINEL 3B",
    "TLE_LINE1": "1 43437U 18039A   23158.17108567  .00000168  00000-0  87345-4 0  9992",
    "TLE_LINE2": "2 43437  98.6278 225.4222 0001044 110.7104 249.4189 14.26732301266410",
    "OBJECT_ID": "2018-039A",
    "OBJECT_NUMBER": "43437",
    "SEMIMAJOR_AXIS": "7180.811",
    "PERIOD": "100.930",
    "APOGEE": "803.426",
    "PERIGEE": "801.927",
    "DECAYED": "0"
  },
  {
    "COMMENT": "GENERATED VIA SPACETRACK.ORG API",
    "ORIGINATOR": "18 SPCS",
    "NORAD_CAT_ID": "43437",
    "OBJECT_NAME": "SENTINEL 3B",
    "OBJECT_TYPE": "PAYLOAD",
    "CLASSIFICATION_TYPE": "U",
    "INTLDES": "18039A",
    "EPOCH": "2023-06-08 03:40:11",
    "EPOCH_MICROSECONDS": "273664",
    "MEAN_MOTION": "14.26731178",
    "ECCENTRICITY": "0.0000915",
    "INCLINATION": "98.6276",
    "RA_OF_ASC_NODE": "226.3896",
    "ARG_OF_PERICENTER": "101.6913",
    "MEAN_ANOMALY": "258.437",
    "EPHEMERIS_TYPE": "0",
    "ELEMENT_SET_NO": "999",
    "REV_AT_EPOCH": "26655",
    "BSTAR": "0.000054392",
    "MEAN_MOTION_DOT": "0.00000088",
    "MEAN_MOTION_DDOT": "0",
    "FILE": "3928007",
    "TLE_LINE0": "0 SENTINEL 3B",
    "TLE_LINE1": "1 43437U 18039A   23159.15290826  .00000088  00000-0  54392-4 0  9998",
    "TLE_LINE2": "2 43437  98.6276 226.3896 0000915 101.6913 258.4370 14.26731178266556",
    "OBJECT_ID": "2018-039A",
    "OBJECT_NUMBER": "43437",
    "SEMIMAJOR_AXIS": "7180.815",
    "PERIOD": "100.930",
    "APOGEE": "803.337",
    "PERIGEE": "802.023",
    "DECAYED": "0"
  }
]